{
  "type": "FeatureCollection",
  "features": [
    {
      "type": "Feature",
      "properties": {
        "norad_id": 34396,
        "name": "COSMOS 2251 DEB",
        "group": "cosmos-2251-debris",
        "lat": 70.62013996066105,
        "lon": -139.9103736741293,
        "alt_km": 635.8762500093371,
        "timestamp": "2025-12-27T19:21:59.139465+00:00",
        "meta_object_name": "COSMOS 2251 DEB",
        "meta_object_id": "1993-036QM",
        "meta_epoch": "2025-12-27T07:46:26.686272",
        "meta_mean_motion": 14.7480598,
        "meta_eccentricity": 0.0004212,
        "meta_inclination": 74.0289,
        "meta_ra_of_asc_node": 95.5382,
        "meta_arg_of_pericenter": 128.0985,
        "meta_mean_anomaly": 289.5971,
        "meta_ephemeris_type": 0,
        "meta_classification_type": "U",
        "meta_norad_cat_id": 34396,
        "meta_element_set_no": 999,
        "meta_rev_at_epoch": 88561,
        "meta_bstar": 0.0021914,
        "meta_mean_motion_dot": 0.00014679,
        "meta_mean_motion_ddot": 0,
        "tle_line1": "1 34396U 93036QM  25361.32391998  .00014679  00000+0  21914-2 0  9992",
        "tle_line2": "2 34396  74.0289  95.5382 0004212 128.0985 289.5971 14.74805980885616"
      },
      "geometry": {
        "type": "Point",
        "coordinates": [
          -139.9103736741293,
          70.62013996066105
        ]
      }
    },
    {
      "type": "Feature",
      "properties": {
        "norad_id": 34400,
        "name": "COSMOS 2251 DEB",
        "group": "cosmos-2251-debris",
        "lat": -43.68730347594386,
        "lon": -174.2438521885267,
        "alt_km": 389.28549480206493,
        "timestamp": "2025-12-27T19:21:59.139474+00:00",
        "meta_object_name": "COSMOS 2251 DEB",
        "meta_object_id": "1993-036QR",
        "meta_epoch": "2025-12-27T09:10:20.093664",
        "meta_mean_motion": 15.60738449,
        "meta_eccentricity": 0.0003712,
        "meta_inclination": 73.9625,
        "meta_ra_of_asc_node": 350.7586,
        "meta_arg_of_pericenter": 181.6229,
        "meta_mean_anomaly": 178.4977,
        "meta_ephemeris_type": 0,
        "meta_classification_type": "U",
        "meta_norad_cat_id": 34400,
        "meta_element_set_no": 999,
        "meta_rev_at_epoch": 90202,
        "meta_bstar": 0.0038362,
        "meta_mean_motion_dot": 0.00332494,
        "meta_mean_motion_ddot": 0,
        "tle_line1": "1 34400U 93036QR  25361.38217701  .00332494  00000+0  38362-2 0  9996",
        "tle_line2": "2 34400  73.9625 350.7586 0003712 181.6229 178.4977 15.60738449902024"
      },
      "geometry": {
        "type": "Point",
        "coordinates": [
          -174.2438521885267,
          -43.68730347594386
        ]
      }
    },
    {
      "type": "Feature",
      "properties": {
        "norad_id": 34409,
        "name": "COSMOS 2251 DEB",
        "group": "cosmos-2251-debris",
        "lat": 5.865642005215575,
        "lon": 96.54034983887904,
        "alt_km": 757.9964468521475,
        "timestamp": "2025-12-27T19:21:59.139483+00:00",
        "meta_object_name": "COSMOS 2251 DEB",
        "meta_object_id": "1993-036RA",
        "meta_epoch": "2025-12-26T13:43:20.964288",
        "meta_mean_motion": 14.58060964,
        "meta_eccentricity": 0.0080461,
        "meta_inclination": 74.0637,
        "meta_ra_of_asc_node": 280.5674,
        "meta_arg_of_pericenter": 351.315,
        "meta_mean_anomaly": 181.8118,
        "meta_ephemeris_type": 0,
        "meta_classification_type": "U",
        "meta_norad_cat_id": 34409,
        "meta_element_set_no": 999,
        "meta_rev_at_epoch": 89394,
        "meta_bstar": 0.00027355,
        "meta_mean_motion_dot": 1.284e-05,
        "meta_mean_motion_ddot": 0,
        "tle_line1": "1 34409U 93036RA  25360.57177042  .00001284  00000+0  27355-3 0  9999",
        "tle_line2": "2 34409  74.0637 280.5674 0080461 351.3150 181.8118 14.58060964893942"
      },
      "geometry": {
        "type": "Point",
        "coordinates": [
          96.54034983887904,
          5.865642005215575
        ]
      }
    },
    {
      "type": "Feature",
      "properties": {
        "norad_id": 34410,
        "name": "COSMOS 2251 DEB",
        "group": "cosmos-2251-debris",
        "lat": -47.90304394730381,
        "lon": -149.25194807635972,
        "alt_km": 518.3266657289023,
        "timestamp": "2025-12-27T19:21:59.139492+00:00",
        "meta_object_name": "COSMOS 2251 DEB",
        "meta_object_id": "1993-036RB",
        "meta_epoch": "2025-12-26T15:17:57.460704",
        "meta_mean_motion": 15.20204778,
        "meta_eccentricity": 0.0021247,
        "meta_inclination": 73.7358,
        "meta_ra_of_asc_node": 232.0969,
        "meta_arg_of_pericenter": 70.7601,
        "meta_mean_anomaly": 321.2169,
        "meta_ephemeris_type": 0,
        "meta_classification_type": "U",
        "meta_norad_cat_id": 34410,
        "meta_element_set_no": 999,
        "meta_rev_at_epoch": 89985,
        "meta_bstar": 0.0022532,
        "meta_mean_motion_dot": 0.00049424,
        "meta_mean_motion_ddot": 0,
        "tle_line1": "1 34410U 93036RB  25360.63747061  .00049424  00000+0  22532-2 0  9991",
        "tle_line2": "2 34410  73.7358 232.0969 0021247  70.7601 321.2169 15.20204778899854"
      },
      "geometry": {
        "type": "Point",
        "coordinates": [
          -149.25194807635972,
          -47.90304394730381
        ]
      }
    },
    {
      "type": "Feature",
      "properties": {
        "norad_id": 34412,
        "name": "COSMOS 2251 DEB",
        "group": "cosmos-2251-debris",
        "lat": 19.824185596629803,
        "lon": 110.31390786513856,
        "alt_km": 820.8317189552245,
        "timestamp": "2025-12-27T19:21:59.139501+00:00",
        "meta_object_name": "COSMOS 2251 DEB",
        "meta_object_id": "1993-036RD",
        "meta_epoch": "2025-12-27T03:42:55.901952",
        "meta_mean_motion": 14.4733154,
        "meta_eccentricity": 0.01877382,
        "meta_inclination": 73.9484,
        "meta_ra_of_asc_node": 297.4976,
        "meta_arg_of_pericenter": 29.2654,
        "meta_mean_anomaly": 331.8863,
        "meta_ephemeris_type": 0,
        "meta_classification_type": "U",
        "meta_norad_cat_id": 34412,
        "meta_element_set_no": 999,
        "meta_rev_at_epoch": 87859,
        "meta_bstar": 0.0021936593,
        "meta_mean_motion_dot": 0.0001001,
        "meta_mean_motion_ddot": 0,
        "tle_line1": "1 34412U 93036RD  25361.15481368  .00010010  00000+0  21937-2 0  9993",
        "tle_line2": "2 34412  73.9484 297.4976 0187738  29.2654 331.8863 14.47331540878598"
      },
      "geometry": {
        "type": "Point",
        "coordinates": [
          110.31390786513856,
          19.824185596629803
        ]
      }
    },
    {
      "type": "Feature",
      "properties": {
        "norad_id": 34413,
        "name": "COSMOS 2251 DEB",
        "group": "cosmos-2251-debris",
        "lat": 29.465378774762495,
        "lon": -113.17787138266068,
        "alt_km": 780.3066178398794,
        "timestamp": "2025-12-27T19:21:59.139510+00:00",
        "meta_object_name": "COSMOS 2251 DEB",
        "meta_object_id": "1993-036RE",
        "meta_epoch": "2025-12-27T09:57:52.339104",
        "meta_mean_motion": 14.29204894,
        "meta_eccentricity": 0.0090938,
        "meta_inclination": 74.0302,
        "meta_ra_of_asc_node": 238.2229,
        "meta_arg_of_pericenter": 311.9899,
        "meta_mean_anomaly": 223.0744,
        "meta_ephemeris_type": 0,
        "meta_classification_type": "U",
        "meta_norad_cat_id": 34413,
        "meta_element_set_no": 999,
        "meta_rev_at_epoch": 87340,
        "meta_bstar": 0.0012953,
        "meta_mean_motion_dot": 3.415e-05,
        "meta_mean_motion_ddot": 0,
        "tle_line1": "1 34413U 93036RE  25361.41518911  .00003415  00000+0  12953-2 0  9997",
        "tle_line2": "2 34413  74.0302 238.2229 0090938 311.9899 223.0744 14.29204894873407"
      },
      "geometry": {
        "type": "Point",
        "coordinates": [
          -113.17787138266068,
          29.465378774762495
        ]
      }
    },
    {
      "type": "Feature",
      "properties": {
        "norad_id": 34420,
        "name": "COSMOS 2251 DEB",
        "group": "cosmos-2251-debris",
        "lat": 72.95820795595526,
        "lon": 143.88834281608032,
        "alt_km": 681.7846584254276,
        "timestamp": "2025-12-27T19:21:59.139519+00:00",
        "meta_object_name": "COSMOS 2251 DEB",
        "meta_object_id": "1993-036RM",
        "meta_epoch": "2025-12-27T07:51:27.397152",
        "meta_mean_motion": 14.68340437,
        "meta_eccentricity": 0.0105928,
        "meta_inclination": 74.0332,
        "meta_ra_of_asc_node": 75.7424,
        "meta_arg_of_pericenter": 193.396,
        "meta_mean_anomaly": 237.9812,
        "meta_ephemeris_type": 0,
        "meta_classification_type": "U",
        "meta_norad_cat_id": 34420,
        "meta_element_set_no": 999,
        "meta_rev_at_epoch": 89984,
        "meta_bstar": 0.00024227,
        "meta_mean_motion_dot": 1.488e-05,
        "meta_mean_motion_ddot": 0,
        "tle_line1": "1 34420U 93036RM  25361.32740043  .00001488  00000+0  24227-3 0  9994",
        "tle_line2": "2 34420  74.0332  75.7424 0105928 193.3960 237.9812 14.68340437899849"
      },
      "geometry": {
        "type": "Point",
        "coordinates": [
          143.88834281608032,
          72.95820795595526
        ]
      }
    }
  ]
}